GLOBALSTAR M063         
1 26081U 00008A   24220.18216601 -.00000087  00000+0 -59658-4 0  9993
2 26081  51.9917 218.5407 0004490  69.9917  10.5471 11.86159331120319
GLOBALSTAR M062         
1 26082U 00008B   24220.72869453 -.00000029  00000+0  49844-3 0  9993
2 26082  51.9856 297.5561 0007480 161.6549 340.6732 12.43441890457625
GLOBALSTAR M060         
1 26083U 00008C   24220.25666678 -.00000113  00000+0 -21664-3 0  9991
2 26083  51.9987 214.5360 0003400 209.6234 268.3402 12.17638043114123
GLOBALSTAR M064         
1 26084U 00008D   24220.61895985 -.00000058  00000+0  35353-3 0  9994
2 26084  52.0053 319.9179 0001902 159.1171 200.9740 11.88520729129819
GLOBALSTAR M065         
1 31571U 07020A   24220.82956970 -.00000086  00000+0  96911-4 0  9996
2 31571  51.9892 100.0040 0010094 337.1192 100.9138 12.61975245793843
GLOBALSTAR M069         
1 31573U 07020C   24220.82072142 -.00000073  00000+0  17096-3 0  9990
2 31573  51.9957  55.7911 0001060  81.3740  37.2059 12.62245226794979
GLOBALSTAR M072         
1 31574U 07020D   24220.18786652 -.00000072  00000+0  17852-3 0  9997
2 31574  52.0073 153.7040 0000763   9.5081 129.7663 12.62261181793168
GLOBALSTAR M071         
1 31576U 07020F   24220.83425639 -.00000071  00000+0  18547-3 0  9997
2 31576  52.0071  60.9573 0001347  98.7387 320.4266 12.62271849456163
